STARLINK-36208          
1 67108U 25299G   26004.50003471 -.00094288  00000+0 -16180-2 0  9991
2 67108  42.9991 178.8261 0001842 255.0556 143.1798 15.50626620  4464
STARLINK-35764          
1 67109U 25299H   26004.50003471 -.02058825  00000+0 -41005-1 0  9994
2 67109  42.9992 178.8234 0001543 253.4434 146.2132 15.49479222  4357
STARLINK-35781          
1 67110U 25299J   26004.50003471 -.00015981  00000+0 -26718-3 0  9996
2 67110  42.9991 178.8118 0001559 261.7828 142.2099 15.50573083  4412
STARLINK-35875          
1 67111U 25299K   26004.50003471 -.00138495  00000+0 -23934-2 0  9999
2 67111  42.9992 178.8176 0001518 251.9532 150.1569 15.50619163  4359
STARLINK-35906          
1 67112U 25299L   26004.50003471 -.00012641  00000+0 -20990-3 0  9994
2 67112  42.9991 178.8075 0001544 272.2569 133.6148 15.50590295  4355
STARLINK-35789          
1 67113U 25299M   26004.50003471 -.00018114  00000+0 -30368-3 0  9996
2 67113  42.9991 178.8021 0001512 265.3586 142.4667 15.50575205  4352
STARLINK-36180          
1 67114U 25299N   26004.50003471  .00107727  00000+0  18216-2 0  9991
2 67114  42.9991 178.7973 0001597 257.9865 151.7801 15.50506205  4467
STARLINK-35892          
1 67115U 25299P   26004.50003471 -.01753322  00000+0 -33103-1 0  9994
2 67115  42.9994 178.7929 0001710 271.5634 140.0360 15.50974693  4354
STARLINK-35738          
1 67116U 25299Q   26004.50003471  .00100382  00000+0  16992-2 0  9992
2 67116  42.9990 178.7882 0001508 258.6688 154.9304 15.50509929  4357
STARLINK-35674          
1 67117U 25299R   26004.50003471 -.02016854  00000+0 -47945-1 0  9998
2 67117  42.9994 178.8216 0001336 276.4807 123.6391 15.44353626  4267
STARLINK-35701          
1 67118U 25299S   26004.50003471  .00108023  00000+0  18264-2 0  9998
2 67118  42.9993 178.7789 0001485 266.2620 151.1677 15.50508631  4411
STARLINK-36179          
1 67119U 25299T   26004.50003471 -.02054711  00000+0 -47490-1 0  9999
2 67119  42.9997 178.7959 0001827 265.5728 144.1976 15.45231623  4463
